{"fetched_at":"2026-07-21T17:53:36.495Z","source":"https://celestrak.org/NORAD/elements/gp.php?NAME=KINEIS&FORMAT=JSON","constellation":"kineis","records":[{"OBJECT_NAME":"KINEIS-1B","OBJECT_ID":"2024-114A","EPOCH":"2026-07-21T07:32:54.252384","CLASSIFICATION_TYPE":"U","MEAN_MOTION":14.8067257,"ECCENTRICITY":0.00024812,"INCLINATION":97.9828,"RA_OF_ASC_NODE":226.337,"ARG_OF_PERICENTER":23.8963,"MEAN_ANOMALY":336.2364,"EPHEMERIS_TYPE":0,"NORAD_CAT_ID":60079,"ELEMENT_SET_NO":999,"REV_AT_EPOCH":11245,"BSTAR":0.000068960026,"MEAN_MOTION_DOT":0.00000477,"MEAN_MOTION_DDOT":0},{"OBJECT_NAME":"KINEIS-1C","OBJECT_ID":"2024-114C","EPOCH":"2026-07-21T06:44:00.943008","CLASSIFICATION_TYPE":"U","MEAN_MOTION":14.80674355,"ECCENTRICITY":0.00025643,"INCLINATION":97.9842,"RA_OF_ASC_NODE":226.16,"ARG_OF_PERICENTER":87.1906,"MEAN_ANOMALY":272.9599,"EPHEMERIS_TYPE":0,"NORAD_CAT_ID":60081,"ELEMENT_SET_NO":999,"REV_AT_EPOCH":11242,"BSTAR":0.000067764136,"MEAN_MOTION_DOT":0.00000468,"MEAN_MOTION_DDOT":0},{"OBJECT_NAME":"KINEIS-1D","OBJECT_ID":"2024-114D","EPOCH":"2026-07-21T08:07:28.530624","CLASSIFICATION_TYPE":"U","MEAN_MOTION":14.76367576,"ECCENTRICITY":0.00029742,"INCLINATION":97.988,"RA_OF_ASC_NODE":222.1022,"ARG_OF_PERICENTER":88.8665,"MEAN_ANOMALY":271.2886,"EPHEMERIS_TYPE":0,"NORAD_CAT_ID":60082,"ELEMENT_SET_NO":999,"REV_AT_EPOCH":11216,"BSTAR":0.000069398841,"MEAN_MOTION_DOT":0.00000431,"MEAN_MOTION_DDOT":0},{"OBJECT_NAME":"KINEIS-1E","OBJECT_ID":"2024-114E","EPOCH":"2026-07-21T07:09:32.515200","CLASSIFICATION_TYPE":"U","MEAN_MOTION":14.80700507,"ECCENTRICITY":0.00042317,"INCLINATION":97.8946,"RA_OF_ASC_NODE":225.1793,"ARG_OF_PERICENTER":97.203,"MEAN_ANOMALY":262.9663,"EPHEMERIS_TYPE":0,"NORAD_CAT_ID":60083,"ELEMENT_SET_NO":999,"REV_AT_EPOCH":11243,"BSTAR":0.000078293405,"MEAN_MOTION_DOT":0.0000055,"MEAN_MOTION_DDOT":0},{"OBJECT_NAME":"KINEIS-1A","OBJECT_ID":"2024-114F","EPOCH":"2026-07-21T07:57:45.886176","CLASSIFICATION_TYPE":"U","MEAN_MOTION":14.80687937,"ECCENTRICITY":0.00050515,"INCLINATION":97.8918,"RA_OF_ASC_NODE":225.3039,"ARG_OF_PERICENTER":47.3729,"MEAN_ANOMALY":312.7908,"EPHEMERIS_TYPE":0,"NORAD_CAT_ID":60084,"ELEMENT_SET_NO":999,"REV_AT_EPOCH":11244,"BSTAR":0.000069771093,"MEAN_MOTION_DOT":0.00000485,"MEAN_MOTION_DDOT":0},{"OBJECT_NAME":"KINEIS-3C","OBJECT_ID":"2024-172A","EPOCH":"2026-07-21T04:32:38.410080","CLASSIFICATION_TYPE":"U","MEAN_MOTION":14.72302739,"ECCENTRICITY":0.00024745,"INCLINATION":98.0432,"RA_OF_ASC_NODE":291.7278,"ARG_OF_PERICENTER":72.9765,"MEAN_ANOMALY":287.1714,"EPHEMERIS_TYPE":0,"NORAD_CAT_ID":61220,"ELEMENT_SET_NO":999,"REV_AT_EPOCH":9807,"BSTAR":0.00019842585,"MEAN_MOTION_DOT":0.00001204,"MEAN_MOTION_DDOT":0},{"OBJECT_NAME":"KINEIS-3D","OBJECT_ID":"2024-172B","EPOCH":"2026-07-20T18:35:46.621824","CLASSIFICATION_TYPE":"U","MEAN_MOTION":14.72297564,"ECCENTRICITY":0.00023263,"INCLINATION":98.0435,"RA_OF_ASC_NODE":291.3279,"ARG_OF_PERICENTER":75.9054,"MEAN_ANOMALY":284.2411,"EPHEMERIS_TYPE":0,"NORAD_CAT_ID":61221,"ELEMENT_SET_NO":999,"REV_AT_EPOCH":9829,"BSTAR":0.00011799232,"MEAN_MOTION_DOT":0.00000696,"MEAN_MOTION_DDOT":0},{"OBJECT_NAME":"KINEIS-3E","OBJECT_ID":"2024-172C","EPOCH":"2026-07-21T05:36:17.725536","CLASSIFICATION_TYPE":"U","MEAN_MOTION":14.72289257,"ECCENTRICITY":0.00016525,"INCLINATION":98.0426,"RA_OF_ASC_NODE":291.7624,"ARG_OF_PERICENTER":85.2594,"MEAN_ANOMALY":274.8802,"EPHEMERIS_TYPE":0,"NORAD_CAT_ID":61222,"ELEMENT_SET_NO":999,"REV_AT_EPOCH":9836,"BSTAR":0.00019498268,"MEAN_MOTION_DOT":0.00001182,"MEAN_MOTION_DDOT":0},{"OBJECT_NAME":"KINEIS-3A","OBJECT_ID":"2024-172D","EPOCH":"2026-07-21T03:34:24.131424","CLASSIFICATION_TYPE":"U","MEAN_MOTION":14.72322281,"ECCENTRICITY":0.00017547,"INCLINATION":98.0423,"RA_OF_ASC_NODE":291.7769,"ARG_OF_PERICENTER":28.9134,"MEAN_ANOMALY":331.2171,"EPHEMERIS_TYPE":0,"NORAD_CAT_ID":61223,"ELEMENT_SET_NO":999,"REV_AT_EPOCH":9777,"BSTAR":0.00019290656,"MEAN_MOTION_DOT":0.0000117,"MEAN_MOTION_DDOT":0},{"OBJECT_NAME":"KINEIS-3B","OBJECT_ID":"2024-172E","EPOCH":"2026-07-21T04:47:19.764384","CLASSIFICATION_TYPE":"U","MEAN_MOTION":14.72308643,"ECCENTRICITY":0.00011505,"INCLINATION":98.0417,"RA_OF_ASC_NODE":291.8487,"ARG_OF_PERICENTER":12.2816,"MEAN_ANOMALY":347.8419,"EPHEMERIS_TYPE":0,"NORAD_CAT_ID":61224,"ELEMENT_SET_NO":999,"REV_AT_EPOCH":9835,"BSTAR":0.00019336139,"MEAN_MOTION_DOT":0.00001173,"MEAN_MOTION_DDOT":0},{"OBJECT_NAME":"KINEIS-5C","OBJECT_ID":"2024-219A","EPOCH":"2026-07-21T05:52:18.332832","CLASSIFICATION_TYPE":"U","MEAN_MOTION":14.72319667,"ECCENTRICITY":0.00046212,"INCLINATION":97.9075,"RA_OF_ASC_NODE":0.1571,"ARG_OF_PERICENTER":156.0184,"MEAN_ANOMALY":204.1239,"EPHEMERIS_TYPE":0,"NORAD_CAT_ID":62081,"ELEMENT_SET_NO":999,"REV_AT_EPOCH":8876,"BSTAR":0.000078023796,"MEAN_MOTION_DOT":0.00000445,"MEAN_MOTION_DDOT":0},{"OBJECT_NAME":"KINEIS-5D","OBJECT_ID":"2024-219B","EPOCH":"2026-07-21T06:29:25.247040","CLASSIFICATION_TYPE":"U","MEAN_MOTION":14.72500555,"ECCENTRICITY":0.0005724,"INCLINATION":97.9187,"RA_OF_ASC_NODE":0.26,"ARG_OF_PERICENTER":150.5159,"MEAN_ANOMALY":209.6373,"EPHEMERIS_TYPE":0,"NORAD_CAT_ID":62082,"ELEMENT_SET_NO":999,"REV_AT_EPOCH":8877,"BSTAR":0.00010751361,"MEAN_MOTION_DOT":0.00000634,"MEAN_MOTION_DDOT":0},{"OBJECT_NAME":"KINEIS-5E","OBJECT_ID":"2024-219C","EPOCH":"2026-07-21T06:56:15.269568","CLASSIFICATION_TYPE":"U","MEAN_MOTION":14.72303944,"ECCENTRICITY":0.00072024,"INCLINATION":97.9031,"RA_OF_ASC_NODE":0.2912,"ARG_OF_PERICENTER":147.0308,"MEAN_ANOMALY":213.135,"EPHEMERIS_TYPE":0,"NORAD_CAT_ID":62083,"ELEMENT_SET_NO":999,"REV_AT_EPOCH":8878,"BSTAR":0.000072804903,"MEAN_MOTION_DOT":0.00000412,"MEAN_MOTION_DDOT":0},{"OBJECT_NAME":"KINEIS-5A","OBJECT_ID":"2024-219D","EPOCH":"2026-07-21T06:25:02.621280","CLASSIFICATION_TYPE":"U","MEAN_MOTION":14.72283787,"ECCENTRICITY":0.00042694,"INCLINATION":97.8973,"RA_OF_ASC_NODE":0.5454,"ARG_OF_PERICENTER":179.719,"MEAN_ANOMALY":180.4021,"EPHEMERIS_TYPE":0,"NORAD_CAT_ID":62084,"ELEMENT_SET_NO":999,"REV_AT_EPOCH":8878,"BSTAR":0.00010948133,"MEAN_MOTION_DOT":0.00000643,"MEAN_MOTION_DDOT":0},{"OBJECT_NAME":"KINEIS-5B","OBJECT_ID":"2024-219E","EPOCH":"2026-07-21T07:05:20.728320","CLASSIFICATION_TYPE":"U","MEAN_MOTION":14.7839359,"ECCENTRICITY":0.00028242,"INCLINATION":98.0097,"RA_OF_ASC_NODE":5.9383,"ARG_OF_PERICENTER":133.5732,"MEAN_ANOMALY":226.5714,"EPHEMERIS_TYPE":0,"NORAD_CAT_ID":62085,"ELEMENT_SET_NO":999,"REV_AT_EPOCH":8904,"BSTAR":0.00010613294,"MEAN_MOTION_DOT":0.00000721,"MEAN_MOTION_DDOT":0},{"OBJECT_NAME":"KINEIS-2C","OBJECT_ID":"2025-028B","EPOCH":"2026-07-21T03:22:14.641536","CLASSIFICATION_TYPE":"U","MEAN_MOTION":14.73440293,"ECCENTRICITY":0.00046394,"INCLINATION":98.1226,"RA_OF_ASC_NODE":256.5697,"ARG_OF_PERICENTER":144.3183,"MEAN_ANOMALY":215.8335,"EPHEMERIS_TYPE":0,"NORAD_CAT_ID":62929,"ELEMENT_SET_NO":999,"REV_AT_EPOCH":7761,"BSTAR":0.00016540507,"MEAN_MOTION_DOT":0.00001022,"MEAN_MOTION_DDOT":0}]}
