KINEIS-1B               
1 60079U 24114A   26202.31451681  .00000477  00000+0  68960-4 0  9995
2 60079  97.9828 226.3370 0002481  23.8963 336.2364 14.80672570112456
KINEIS-1C               
1 60081U 24114C   26202.28056647  .00000468  00000+0  67764-4 0  9998
2 60081  97.9842 226.1600 0002564  87.1906 272.9599 14.80674355112427
KINEIS-1D               
1 60082U 24114D   26202.33852466  .00000431  00000+0  69399-4 0  9994
2 60082  97.9880 222.1022 0002974  88.8665 271.2886 14.76367576112160
KINEIS-1E               
1 60083U 24114E   26202.29829300  .00000550  00000+0  78293-4 0  9996
2 60083  97.8946 225.1793 0004231  97.2030 262.9663 14.80700507112439
KINEIS-1A               
1 60084U 24114F   26202.33178109  .00000485  00000+0  69771-4 0  9994
2 60084  97.8918 225.3039 0005051  47.3729 312.7908 14.80687937112444
KINEIS-3C               
1 61220U 24172A   26202.18933345  .00001204  00000+0  19843-3 0  9999
2 61220  98.0432 291.7278 0002474  72.9765 287.1714 14.72302739 98070
KINEIS-3D               
1 61221U 24172B   26201.77484516  .00000696  00000+0  11799-3 0  9991
2 61221  98.0435 291.3279 0002326  75.9054 284.2411 14.72297564 98296
KINEIS-3E               
1 61222U 24172C   26202.23353849  .00001182  00000+0  19498-3 0  9993
2 61222  98.0426 291.7624 0001652  85.2594 274.8802 14.72289257 98366
KINEIS-3A               
1 61223U 24172D   26202.14889041  .00001170  00000+0  19291-3 0  9990
2 61223  98.0423 291.7769 0001754  28.9134 331.2171 14.72322281 97777
KINEIS-3B               
1 61224U 24172E   26202.19953431  .00001173  00000+0  19336-3 0  9994
2 61224  98.0417 291.8487 0001150  12.2816 347.8419 14.72308643 98351
KINEIS-5C               
1 62081U 24219A   26202.24465663  .00000445  00000+0  78024-4 0  9990
2 62081  97.9075   0.1571 0004621 156.0184 204.1239 14.72319667 88764
KINEIS-5D               
1 62082U 24219B   26202.27043110  .00000634  00000+0  10751-3 0  9995
2 62082  97.9187   0.2600 0005724 150.5159 209.6373 14.72500555 88777
KINEIS-5E               
1 62083U 24219C   26202.28906562  .00000412  00000+0  72805-4 0  9999
2 62083  97.9031   0.2912 0007202 147.0308 213.1350 14.72303944 88781
KINEIS-5A               
1 62084U 24219D   26202.26739145  .00000643  00000+0  10948-3 0  9994
2 62084  97.8973   0.5454 0004269 179.7190 180.4021 14.72283787 88784
KINEIS-5B               
1 62085U 24219E   26202.29537880  .00000721  00000+0  10613-3 0  9996
2 62085  98.0097   5.9383 0002824 133.5732 226.5714 14.78393590 89041
KINEIS-2C               
1 62929U 25028B   26202.14044724  .00001022  00000+0  16541-3 0  9997
2 62929  98.1226 256.5697 0004639 144.3183 215.8335 14.73440293 77619
